COMMENT,ORIGINATOR,NORAD_CAT_ID,OBJECT_NAME,OBJECT_TYPE,CLASSIFICATION_TYPE,INTLDES,EPOCH,EPOCH_MICROSECONDS,MEAN_MOTION,ECCENTRICITY,INCLINATION,RA_OF_ASC_NODE,ARG_OF_PERICENTER,MEAN_ANOMALY,EPHEMERIS_TYPE,ELEMENT_SET_NO,REV_AT_EPOCH,BSTAR,MEAN_MOTION_DOT,MEAN_MOTION_DDOT,FILE,TLE_LINE0,TLE_LINE1,TLE_LINE2,OBJECT_ID,OBJECT_NUMBER,SEMIMAJOR_AXIS,PERIOD,APOGEE,PERIGEE,DECAYED,date
GENERATED VIA SPACETRACK.ORG API,18 SPCS,52182,SPACEBEE-128,PAYLOAD,U,22033AB,2023/4/9 23:21,992128,15.39984918,0.0005191,97.3522,183.2637,61.1608,299.0158,0,999,5694,0.0014036,0.0005625,0,3884623,0 SPACEBEE-128,1 52182U 22033AB  23099.97329852  .00056250  00000-0  14036-2 0  9990,2 52182  97.3522 183.2637 0005191  61.1608 299.0158 15.39984918 56941,2022-033AB,52182,6824.291,93.507,449.698,442.613,1,
GENERATED VIA SPACETRACK.ORG API,18 SPCS,52182,SPACEBEE-128,PAYLOAD,U,22033AB,2023/4/10 5:35,97760,15.4002236,0.0005166,97.3523,183.5251,60.1567,300.0192,0,999,5700,0.0015018,0.00060297,0,3885195,0 SPACEBEE-128,1 52182U 22033AB  23100.23320715  .00060297  00000-0  15018-2 0  9998,2 52182  97.3523 183.5251 0005166  60.1567 300.0192 15.40022360 57007,2022-033AB,52182,6824.18,93.505,449.571,442.52,1,
GENERATED VIA SPACETRACK.ORG API,18 SPCS,52182,SPACEBEE-128,PAYLOAD,U,22033AB,2023/4/11 4:59,968896,15.40149826,0.0005049,97.352,184.5046,56.4743,303.6985,0,999,5715,0.0013313,0.00053619,0,3885783,0 SPACEBEE-128,1 52182U 22033AB  23101.20781214  .00053619  00000-0  13313-2 0  9997,2 52182  97.3520 184.5046 0005049  56.4743 303.6985 15.40149826 57153,2022-033AB,52182,6823.804,93.497,449.114,442.223,1,
GENERATED VIA SPACETRACK.ORG API,18 SPCS,52182,SPACEBEE-128,PAYLOAD,U,22033AB,2023/4/12 4:22,896928,15.40275878,0.000496,97.3521,185.4846,51.689,308.4801,0,999,5728,0.0013739,0.0005558,0,3886139,0 SPACEBEE-128,1 52182U 22033AB  23102.18233677  .00055580  00000-0  13739-2 0  9991,2 52182  97.3521 185.4846 0004960  51.6890 308.4801 15.40275878 57284,2022-033AB,52182,6823.431,93.49,448.681,441.912,1,
GENERATED VIA SPACETRACK.ORG API,18 SPCS,52182,SPACEBEE-128,PAYLOAD,U,22033AB,2023/4/13 3:45,146240,15.40400301,0.0004808,97.3518,186.4638,47.9444,312.2211,0,999,5745,0.0015075,0.00061287,0,3886564,0 SPACEBEE-128,1 52182U 22033AB  23103.15678410  .00061287  00000-0  15075-2 0  9993,2 52182  97.3518 186.4638 0004808  47.9444 312.2211 15.40400301 57452,2022-033AB,52182,6823.064,93.482,448.21,441.648,1,
GENERATED VIA SPACETRACK.ORG API,18 SPCS,52182,SPACEBEE-128,PAYLOAD,U,22033AB,2023/4/14 4:42,484096,15.40542591,0.000471,97.3518,187.5089,42.9391,317.2223,0,999,5759,0.0017378,0.00071083,0,3887210,0 SPACEBEE-128,1 52182U 22033AB  23104.19610514  .00071083  00000-0  17378-2 0  9992,2 52182  97.3518 187.5089 0004710  42.9391 317.2223 15.40542591 57593,2022-033AB,52182,6822.644,93.474,447.722,441.295,1,
GENERATED VIA SPACETRACK.ORG API,18 SPCS,52182,SPACEBEE-128,PAYLOAD,U,22033AB,2023/4/14 4:42,484096,15.40542591,0.000471,97.3518,187.5089,42.9391,317.2223,0,999,5761,0.0017378,0.00071083,0,3887333,0 SPACEBEE-128,1 52182U 22033AB  23104.19610514  .00071083  00000-0  17378-2 0  9992,2 52182  97.3518 187.5089 0004710  42.9391 317.2223 15.40542591 57616,2022-033AB,52182,6822.644,93.474,447.722,441.295,1,
GENERATED VIA SPACETRACK.ORG API,18 SPCS,52182,SPACEBEE-128,PAYLOAD,U,22033AB,2023/4/15 4:05,595264,15.40690506,0.0004675,97.3522,188.4892,38.8701,321.2881,0,999,5776,0.0018043,0.00074196,0,3887974,0 SPACEBEE-128,1 52182U 22033AB  23105.17037726  .00074196  00000-0  18043-2 0  9997,2 52182  97.3522 188.4892 0004675  38.8701 321.2881 15.40690506 57763,2022-033AB,52182,6822.207,93.465,447.262,440.883,1,
GENERATED VIA SPACETRACK.ORG API,18 SPCS,52182,SPACEBEE-128,PAYLOAD,U,22033AB,2023/4/16 11:15,453152,15.4090165,0.0004697,97.3525,189.7963,30.4919,329.66,0,999,5796,0.0019118,0.00079223,0,3888626,0 SPACEBEE-128,1 52182U 22033AB  23106.46925293  .00079223  00000-0  19118-2 0  9995,2 52182  97.3525 189.7963 0004697  30.4919 329.6600 15.40901650 57960,2022-033AB,52182,6821.584,93.452,446.653,440.245,1,
GENERATED VIA SPACETRACK.ORG API,18 SPCS,52182,SPACEBEE-128,PAYLOAD,U,22033AB,2023/4/16 19:03,736544,15.40955044,0.0004674,97.3524,190.1228,28.4098,331.7403,0,999,5801,0.0018835,0.00078176,0,3888799,0 SPACEBEE-128,1 52182U 22033AB  23106.79394371  .00078176  00000-0  18835-2 0  9999,2 52182  97.3524 190.1228 0004674  28.4098 331.7403 15.40955044 58017,2022-033AB,52182,6821.426,93.449,446.48,440.103,1,
GENERATED VIA SPACETRACK.ORG API,18 SPCS,52182,SPACEBEE-128,PAYLOAD,U,22033AB,2023/4/17 4:24,362816,15.41020104,0.0004519,97.3524,190.5145,27.3916,332.7568,0,999,5805,0.0018975,0.00078933,0,3888988,0 SPACEBEE-128,1 52182U 22033AB  23107.18355744  .00078933  00000-0  18975-2 0  9990,2 52182  97.3524 190.5145 0004519  27.3916 332.7568 15.41020104 58052,2022-033AB,52182,6821.234,93.445,446.182,440.017,1,
GENERATED VIA SPACETRACK.ORG API,18 SPCS,52182,SPACEBEE-128,PAYLOAD,U,22033AB,2023/4/17 4:24,362816,15.41020104,0.0004519,97.3524,190.5145,27.3916,332.7568,0,999,5807,0.0018975,0.00078933,0,3889215,0 SPACEBEE-128,1 52182U 22033AB  23107.18355744  .00078933  00000-0  18975-2 0  9990,2 52182  97.3524 190.5145 0004519  27.3916 332.7568 15.41020104 58074,2022-033AB,52182,6821.234,93.445,446.182,440.017,1,
GENERATED VIA SPACETRACK.ORG API,18 SPCS,52182,SPACEBEE-128,PAYLOAD,U,22033AB,2023/4/17 18:25,826432,15.411136,0.0004566,97.3524,191.1029,24.6659,335.4805,0,999,5816,0.0019996,0.00083492,0,3889391,0 SPACEBEE-128,1 52182U 22033AB  23107.76794938  .00083492  00000-0  19996-2 0  9996,2 52182  97.3524 191.1029 0004566  24.6659 335.4805 15.41113600 58166,2022-033AB,52182,6820.958,93.439,445.938,439.709,1,
GENERATED VIA SPACETRACK.ORG API,18 SPCS,52182,SPACEBEE-128,PAYLOAD,U,22033AB,2023/4/18 3:46,70144,15.41176005,0.0004472,97.3523,191.4945,23.6948,336.4504,0,999,5822,0.0017936,0.00074952,0,3889684,0 SPACEBEE-128,1 52182U 22033AB  23108.15752396  .00074952  00000-0  17936-2 0  9995,2 52182  97.3523 191.4945 0004472  23.6948 336.4504 15.41176005 58223,2022-033AB,52182,6820.774,93.435,445.69,439.589,1,
GENERATED VIA SPACETRACK.ORG API,18 SPCS,52182,SPACEBEE-128,PAYLOAD,U,22033AB,2023/4/18 16:14,126976,15.41250582,0.0004513,97.3521,192.0179,20.2952,339.8473,0,999,5830,0.0018512,0.0007758,0,3889987,0 SPACEBEE-128,1 52182U 22033AB  23108.67693434  .00077580  00000-0  18512-2 0  9990,2 52182  97.3521 192.0179 0004513  20.2952 339.8473 15.41250582 58305,2022-033AB,52182,6820.554,93.431,445.497,439.341,1,
GENERATED VIA SPACETRACK.ORG API,18 SPCS,52182,SPACEBEE-128,PAYLOAD,U,22033AB,2023/4/19 4:42,834592,15.41335556,0.00044,97.3522,192.5402,17.5495,342.5903,0,999,5838,0.0020029,0.00084252,0,3890383,0 SPACEBEE-128,1 52182U 22033AB  23109.19631753  .00084252  00000-0  20029-2 0  9994,2 52182  97.3522 192.5402 0004400  17.5495 342.5903 15.41335556 58388,2022-033AB,52182,6820.304,93.425,445.17,439.168,1,
GENERATED VIA SPACETRACK.ORG API,18 SPCS,52182,SPACEBEE-128,PAYLOAD,U,22033AB,2023/4/19 17:10,145472,15.41420453,0.0004491,97.352,193.0634,15.1437,344.9943,0,999,5846,0.0021055,0.00088876,0,3890520,0 SPACEBEE-128,1 52182U 22033AB  23109.71567298  .00088876  00000-0  21055-2 0  9990,2 52182  97.3520 193.0634 0004491  15.1437 344.9943 15.41420453 58469,2022-033AB,52182,6820.053,93.42,444.981,438.855,1,
GENERATED VIA SPACETRACK.ORG API,18 SPCS,52182,SPACEBEE-128,PAYLOAD,U,22033AB,2023/4/20 4:04,370784,15.4148829,0.0004383,97.3519,193.5207,13.7063,346.4302,0,999,5851,0.0015482,0.00065276,0,3890792,0 SPACEBEE-128,1 52182U 22033AB  23110.17008531  .00065276  00000-0  15482-2 0  9998,2 52182  97.3519 193.5207 0004383  13.7063 346.4302 15.41488290 58512,2022-033AB,52182,6819.853,93.416,444.707,438.729,1,
GENERATED VIA SPACETRACK.ORG API,18 SPCS,52182,SPACEBEE-128,PAYLOAD,U,22033AB,2023/4/20 4:04,370784,15.4148829,0.0004383,97.3519,193.5207,13.7063,346.4302,0,999,5853,0.0015482,0.00065276,0,3890827,0 SPACEBEE-128,1 52182U 22033AB  23110.17008531  .00065276  00000-0  15482-2 0  9998,2 52182  97.3519 193.5207 0004383  13.7063 346.4302 15.41488290 58534,2022-033AB,52182,6819.853,93.416,444.707,438.729,1,
GENERATED VIA SPACETRACK.ORG API,18 SPCS,52182,SPACEBEE-128,PAYLOAD,U,22033AB,2023/4/21 12:47,671456,15.41664011,0.0004344,97.3516,194.8939,6.9605,353.1702,0,999,5872,0.0015331,0.00065013,0,3891488,0 SPACEBEE-128,1 52182U 22033AB  23111.53321379  .00065013  00000-0  15331-2 0  9999,2 52182  97.3516 194.8939 0004344   6.9605 353.1702 15.41664011 58727,2022-033AB,52182,6819.335,93.406,444.162,438.238,1,
GENERATED VIA SPACETRACK.ORG API,18 SPCS,52182,SPACEBEE-128,PAYLOAD,U,22033AB,2023/4/21 12:47,671456,15.41664011,0.0004344,97.3516,194.8939,6.9605,353.1702,0,999,5874,0.0015331,0.00065013,0,3891529,0 SPACEBEE-128,1 52182U 22033AB  23111.53321379  .00065013  00000-0  15331-2 0  9999,2 52182  97.3516 194.8939 0004344   6.9605 353.1702 15.41664011 58749,2022-033AB,52182,6819.335,93.406,444.162,438.238,1,
GENERATED VIA SPACETRACK.ORG API,18 SPCS,52182,SPACEBEE-128,PAYLOAD,U,22033AB,2023/4/21 17:28,468224,15.41693784,0.0004369,97.3515,195.0901,5.5159,354.6135,0,999,5877,0.0016193,0.00068775,0,3892071,0 SPACEBEE-128,1 52182U 22033AB  23111.72793366  .00068775  00000-0  16193-2 0  9994,2 52182  97.3515 195.0901 0004369   5.5159 354.6135 15.41693784 58774,2022-033AB,52182,6819.247,93.404,444.091,438.133,1,
GENERATED VIA SPACETRACK.ORG API,18 SPCS,52182,SPACEBEE-128,PAYLOAD,U,22033AB,2023/4/22 16:50,783872,15.4183354,0.0004379,97.3511,196.0708,0.7802,359.3451,0,999,5892,0.0016344,0.00069749,0,3892285,0 SPACEBEE-128,1 52182U 22033AB  23112.70147898  .00069749  00000-0  16344-2 0  9996,2 52182  97.3511 196.0708 0004379   0.7802 359.3451 15.41833540 58925,2022-033AB,52182,6818.835,93.395,443.686,437.714,1,
